NORAD_CAT_ID,OBJECT_NAME,OBJECT_TYPE,EPOCH,MEAN_MOTION,ECCENTRICITY,INCLINATION,RA_OF_ASC_NODE,ARG_OF_PERICENTER,MEAN_ANOMALY,BSTAR,MEAN_MOTION_DOT,MEAN_MOTION_DDOT,TLE_LINE0,TLE_LINE1,TLE_LINE2,SEMIMAJOR_AXIS,PERIOD,APOGEE,PERIGEE,DECAYED
55410.0,STARLINK-5633,PAYLOAD,2023-06-23 10:06:35,14.98327128,0.0002822,70.0005,61.1109,267.3785,92.7051,6.8109e-06,-1.2e-07,0.0,0 STARLINK-5633,1 55410U 23014V   23174.42123970 -.00000012  00000-0  68109-5 0  9993,2 55410  70.0005  61.1109 0002822 267.3785  92.7051 14.98327128 23238,6950.202,96.107,574.028,570.105,0.0
55410.0,STARLINK-5633,PAYLOAD,2023-06-24 16:33:08,14.98331069,0.0002995,70.0003,57.9107,268.0377,92.0439,1.0203e-05,2.9e-07,0.0,0 STARLINK-5633,1 55410U 23014V   23175.68967732  .00000029  00000-0  10203-4 0  9992,2 55410  70.0003  57.9107 0002995 268.0377  92.0439 14.98331069 23426,6950.19,96.107,574.136,569.973,0.0
55410.0,STARLINK-5633,PAYLOAD,2023-06-25 16:35:09,14.98328898,0.000305,70.0001,55.3867,267.524,92.557,2.5008e-05,2.05e-06,0.0,0 STARLINK-5633,1 55410U 23014V   23176.69107739  .00000205  00000-0  25008-4 0  9992,2 55410  70.0001  55.3867 0003050 267.5240  92.5570 14.98328898 23578,6950.196,96.107,574.181,569.941,0.0
55410.0,STARLINK-5633,PAYLOAD,2023-06-26 16:37:10,14.98330171,0.0002994,70.0002,52.8619,269.2862,90.7954,4.6959e-06,-3.7e-07,0.0,0 STARLINK-5633,1 55410U 23014V   23177.69247702 -.00000037  00000-0  46959-5 0  9991,2 55410  70.0002  52.8619 0002994 269.2862  90.7954 14.98330171 23721,6950.192,96.107,574.138,569.976,0.0
55410.0,STARLINK-5633,PAYLOAD,2023-06-27 21:27:34,14.98332294,0.0003089,70.0002,49.8322,267.9734,92.1072,-2.6516e-06,-1.25e-06,0.0,0 STARLINK-5633,1 55410U 23014V   23178.89415465 -.00000125  00000-0 -26516-5 0  9993,2 55410  70.0002  49.8322 0003089 267.9734  92.1072 14.98332294 23902,6950.186,96.107,574.198,569.904,0.0
55410.0,STARLINK-5633,PAYLOAD,2023-06-29 00:41:52,14.98328022,0.0003122,70.0002,46.9707,268.6141,91.466,-1.5167e-05,-2.74e-06,0.0,0 STARLINK-5633,1 55410U 23014V   23180.02907787 -.00000274  00000-0 -15167-4 0  9998,2 55410  70.0002  46.9707 0003122 268.6141  91.4660 14.98328022 24073,6950.199,96.107,574.234,569.894,0.0
55410.0,STARLINK-5633,PAYLOAD,2023-07-01 00:45:54,14.98330062,0.0003201,69.9999,41.9202,269.8501,90.2291,3.1508e-05,2.83e-06,0.0,0 STARLINK-5633,1 55410U 23014V   23182.03187523  .00000283  00000-0  31508-4 0  9994,2 55410  69.9999  41.9202 0003201 269.8501  90.2291 14.98330062 24378,6950.193,96.107,574.282,569.833,0.0
55410.0,STARLINK-5633,PAYLOAD,2023-07-02 00:47:54,14.98332975,0.0003154,70.0001,39.3952,270.7006,89.3792,2.0605e-05,1.53e-06,0.0,0 STARLINK-5633,1 55410U 23014V   23183.03327310  .00000153  00000-0  20605-4 0  9997,2 55410  70.0001  39.3952 0003154 270.7006  89.3792 14.98332975 24523,6950.184,96.107,574.241,569.857,0.0
55410.0,STARLINK-5633,PAYLOAD,2023-07-03 00:49:55,14.98329846,0.0003095,70.0003,36.8706,270.278,89.8024,4.3761e-06,-4.1e-07,0.0,0 STARLINK-5633,1 55410U 23014V   23184.03467503 -.00000041  00000-0  43761-5 0  9993,2 55410  70.0003  36.8706 0003095 270.2780  89.8024 14.98329846 24674,6950.193,96.107,574.209,569.907,0.0
55410.0,STARLINK-5633,PAYLOAD,2023-07-04 00:51:56,14.98332933,0.000311,70.0003,34.3453,269.6102,90.4701,1.4112e-05,7.5e-07,0.0,0 STARLINK-5633,1 55410U 23014V   23185.03607158  .00000075  00000-0  14112-4 0  9999,2 55410  70.0003  34.3453 0003110 269.6102  90.4701 14.98332933 24822,6950.184,96.107,574.21,569.887,0.0
55410.0,STARLINK-5633,PAYLOAD,2023-07-05 07:18:29,14.98331017,0.0003231,70.0001,31.1466,269.2297,90.8491,-2.1738e-06,-1.19e-06,0.0,0 STARLINK-5633,1 55410U 23014V   23186.30451107 -.00000119  00000-0 -21738-5 0  9995,2 55410  70.0001  31.1466 0003231 269.2297  90.8491 14.98331017 25018,6950.19,96.107,574.3,569.809,0.0
55410.0,STARLINK-5633,PAYLOAD,2023-07-06 07:20:30,14.98329367,0.0003224,70.0,28.6223,272.5722,87.5068,-1.6185e-05,-2.86e-06,0.0,0 STARLINK-5633,1 55410U 23014V   23187.30591271 -.00000286  00000-0 -16185-4 0  9997,2 55410  70.0000  28.6223 0003224 272.5722  87.5068 14.98329367 25165,6950.195,96.107,574.301,569.819,0.0
55410.0,STARLINK-5633,PAYLOAD,2023-07-07 15:23:12,14.98328703,0.0003147,70.0001,25.2554,269.2868,90.793,1.8156e-05,1.24e-06,0.0,0 STARLINK-5633,1 55410U 23014V   23188.64111116  .00000124  00000-0  18156-4 0  9990,2 55410  70.0001  25.2554 0003147 269.2868  90.7930 14.98328703 25363,6950.197,96.107,574.249,569.875,0.0
55410.0,STARLINK-5633,PAYLOAD,2023-07-08 18:37:28,14.98330945,0.0003132,70.0001,22.3938,268.3558,91.7242,-3.4826e-06,-1.35e-06,0.0,0 STARLINK-5633,1 55410U 23014V   23189.77602988 -.00000135  00000-0 -34826-5 0  9994,2 55410  70.0001  22.3938 0003132 268.3558  91.7242 14.98330945 25534,6950.19,96.107,574.232,569.878,0.0
55410.0,STARLINK-5633,PAYLOAD,2023-07-09 18:39:30,14.98324615,0.0003207,70.0003,19.8681,271.6266,88.4526,-4.3819e-07,-9.8e-07,0.0,0 STARLINK-5633,1 55410U 23014V   23190.77743357 -.00000098  00000-0 -43819-6 0  9993,2 55410  70.0003  19.8681 0003207 271.6266  88.4526 14.98324615 25689,6950.21,96.107,574.303,569.846,0.0
55410.0,STARLINK-5633,PAYLOAD,2023-07-10 12:16:58,14.9833582,0.0003239,70.0001,18.0167,272.3158,87.763,-8.3586e-05,-1.09e-05,0.0,0 STARLINK-5633,1 55410U 23014V   23191.51178939 -.00001090  00000-0 -83586-4 0  9990,2 55410  70.0001  18.0167 0003239 272.3158  87.7630 14.98335820 25790,6950.175,96.107,574.291,569.789,0.0
55410.0,STARLINK-5633,PAYLOAD,2023-07-11 21:55:48,14.98326761,0.0003251,70.0005,14.4821,271.1599,88.9188,4.7576e-05,4.75e-06,0.0,0 STARLINK-5633,1 55410U 23014V   23192.91375010  .00000475  00000-0  47576-4 0  9997,2 55410  70.0005  14.4821 0003251 271.1599  88.9188 14.98326761 26001,6950.203,96.107,574.327,569.808,0.0
55410.0,STARLINK-5633,PAYLOAD,2023-07-12 18:45:24,14.98442509,0.0003716,70.0012,12.2936,264.126,95.9475,0.0012878,0.00015352,0.0,0 STARLINK-5633,1 55410U 23014V   23193.78152885  .00015352  00000-0  12878-2 0  9991,2 55410  70.0012  12.2936 0003716 264.1260  95.9475 14.98442509 26135,6949.845,96.1,574.293,569.127,0.0
55410.0,STARLINK-5633,PAYLOAD,2023-07-13 17:11:25,14.98326317,0.000335,70.0004,9.9376,271.484,88.5935,-2.0914e-05,-3.43e-06,0.0,0 STARLINK-5633,1 55410U 23014V   23194.71627126 -.00000343  00000-0 -20914-4 0  9998,2 55410  70.0004   9.9376 0003350 271.4840  88.5935 14.98326317 26278,6950.204,96.107,574.398,569.741,0.0
55410.0,STARLINK-5633,PAYLOAD,2023-07-14 17:13:26,14.98334093,0.0003356,70.0002,7.4125,270.1589,89.9185,-2.7241e-05,-4.18e-06,0.0,0 STARLINK-5633,1 55410U 23014V   23195.71766606 -.00000418  00000-0 -27241-4 0  9999,2 55410  70.0002   7.4125 0003356 270.1589  89.9185 14.98334093 26422,6950.18,96.107,574.378,569.713,0.0
55410.0,STARLINK-5633,PAYLOAD,2023-07-15 04:26:22,14.98348591,0.0003437,70.0002,6.2341,269.8371,90.2394,-0.00029792,-3.648e-05,0.0,0 STARLINK-5633,1 55410U 23014V   23196.18498093 -.00003648  00000-0 -29792-3 0  9993,2 55410  70.0002   6.2341 0003437 269.8371  90.2394 14.98348591 26495,6950.135,96.106,574.389,569.612,0.0
55410.0,STARLINK-5633,PAYLOAD,2023-07-15 17:15:27,14.98327166,0.0003285,70.0003,4.8874,269.4095,90.6688,1.2689e-05,5.8e-07,0.0,0 STARLINK-5633,1 55410U 23014V   23196.71906866  .00000058  00000-0  12689-4 0  9992,2 55410  70.0003   4.8874 0003285 269.4095  90.6688 14.98327166 26575,6950.202,96.107,574.35,569.784,0.0
55410.0,STARLINK-5633,PAYLOAD,2023-07-16 17:17:28,14.9832603,0.0003202,70.0007,2.3625,268.4961,91.5832,-8.4734e-05,-1.104e-05,0.0,0 STARLINK-5633,1 55410U 23014V   23197.72047281 -.00001104  00000-0 -84734-4 0  9996,2 55410  70.0007   2.3625 0003202 268.4961  91.5832 14.98326030 26723,6950.205,96.107,574.296,569.845,0.0
55410.0,STARLINK-5633,PAYLOAD,2023-07-17 10:54:57,14.98328166,0.0003274,70.0007,0.5112,271.0141,89.0643,2.7976e-05,2.41e-06,0.0,0 STARLINK-5633,1 55410U 23014V   23198.45482836  .00000241  00000-0  27976-4 0  9990,2 55410  70.0007   0.5112 0003274 271.0141  89.0643 14.98328166 26839,6950.199,96.107,574.339,569.788,0.0
55410.0,STARLINK-5633,PAYLOAD,2023-07-17 20:31:45,14.98334284,0.0003366,70.0007,359.5013,273.1711,86.9062,8.1421e-05,8.79e-06,0.0,0 STARLINK-5633,1 55410U 23014V   23198.85538276  .00000879  00000-0  81421-4 0  9996,2 55410  70.0007 359.5013 0003366 273.1711  86.9062 14.98334284 26899,6950.18,96.107,574.384,569.705,0.0
55410.0,STARLINK-5633,PAYLOAD,2023-07-18 14:09:14,14.98327645,0.0003305,70.0008,357.6497,271.6911,88.387,3.8847e-05,3.7e-06,0.0,0 STARLINK-5633,1 55410U 23014V   23199.58974747  .00000370  00000-0  38847-4 0  9994,2 55410  70.0008 357.6497 0003305 271.6911  88.3870 14.98327645 27003,6950.2,96.107,574.362,569.768,0.0
55410.0,STARLINK-5633,PAYLOAD,2023-07-19 17:23:31,14.98325706,0.0003123,70.0015,354.788,270.8868,89.1933,-8.9789e-05,-1.164e-05,0.0,0 STARLINK-5633,1 55410U 23014V   23200.72467270 -.00001164  00000-0 -89789-4 0  9996,2 55410  70.0015 354.7880 0003123 270.8868  89.1933 14.98325706 27178,6950.206,96.107,574.242,569.901,0.0
55410.0,STARLINK-5633,PAYLOAD,2023-07-20 12:37:07,14.98333016,0.0003273,70.0012,352.7681,271.44,88.6384,5.4179e-06,-2.8e-07,0.0,0 STARLINK-5633,1 55410U 23014V   23201.52578556 -.00000028  00000-0  54179-5 0  9998,2 55410  70.0012 352.7681 0003273 271.4400  88.6384 14.98333016 27297,6950.184,96.107,574.323,569.774,0.0
55410.0,STARLINK-5633,PAYLOAD,2023-07-24 07:56:47,14.98331241,0.0003553,70.0009,343.1734,270.8989,89.1763,3.6571e-05,3.43e-06,0.0,0 STARLINK-5633,1 55410U 23014V   23205.33110380  .00000343  00000-0  36571-4 0  9992,2 55410  70.0009 343.1734 0003553 270.8989  89.1763 14.98331241 27860,6950.189,96.107,574.523,569.585,0.0
55410.0,STARLINK-5633,PAYLOAD,2023-07-25 11:11:04,14.98326705,0.0003163,69.9993,340.3103,259.8735,100.2067,4.0983e-05,3.96e-06,0.0,0 STARLINK-5633,1 55410U 23014V   23206.46602432  .00000396  00000-0  40983-4 0  9991,2 55410  69.9993 340.3103 0003163 259.8735 100.2067 14.98326705 28032,6950.203,96.107,574.266,569.87,0.0
